NORAD_CAT_ID,OBJECT_NAME,OBJECT_TYPE,EPOCH,MEAN_MOTION,ECCENTRICITY,INCLINATION,RA_OF_ASC_NODE,ARG_OF_PERICENTER,MEAN_ANOMALY,BSTAR,MEAN_MOTION_DOT,MEAN_MOTION_DDOT,TLE_LINE0,TLE_LINE1,TLE_LINE2,SEMIMAJOR_AXIS,PERIOD,APOGEE,PERIGEE,DECAYED
53438.0,STARLINK-4526,PAYLOAD,2024-03-27 07:25:46,15.08857996,0.0001241,53.2177,61.7612,86.5847,273.5287,0.00016769,2.383e-05,0.0,0 STARLINK-4526,1 53438U 22097BC  24087.30956741  .00002383  00000-0  16769-3 0  9997,2 53438  53.2177  61.7612 0001241  86.5847 273.5287 15.08857996 90763,6917.825,95.436,540.549,538.832,0.0
53438.0,STARLINK-4526,PAYLOAD,2024-03-27 21:44:16,15.08833967,0.0001663,53.2181,59.0868,92.209,267.9092,0.00022828,3.346e-05,0.0,0 STARLINK-4526,1 53438U 22097BC  24087.90574208  .00003346  00000-0  22828-3 0  9990,2 53438  53.2181  59.0868 0001663  92.2090 267.9092 15.08833967 90856,6917.899,95.438,540.914,538.613,0.0
53438.0,STARLINK-4526,PAYLOAD,2024-03-28 07:16:34,15.08850278,0.0001333,53.2183,57.3024,104.4257,255.6883,0.00021729,3.173e-05,0.0,0 STARLINK-4526,1 53438U 22097BC  24088.30317275  .00003173  00000-0  21729-3 0  9991,2 53438  53.2183  57.3024 0001333 104.4257 255.6883 15.08850278 90911,6917.849,95.437,540.636,538.792,0.0
53438.0,STARLINK-4526,PAYLOAD,2024-03-29 03:56:35,15.08848625,0.0001502,53.2193,53.4344,106.8999,253.2158,-7.8194e-05,-1.533e-05,0.0,0 STARLINK-4526,1 53438U 22097BC  24089.16429866 -.00001533  00000-0 -78194-4 0  9995,2 53438  53.2193  53.4344 0001502 106.8999 253.2158 15.08848625 91048,6917.854,95.437,540.758,538.68,0.0
53438.0,STARLINK-4526,PAYLOAD,2024-03-29 21:25:49,15.0884354,0.000138,53.2183,50.1683,92.376,267.739,0.00011253,1.504e-05,0.0,0 STARLINK-4526,1 53438U 22097BC  24089.89293620  .00001504  00000-0  11253-3 0  9990,2 53438  53.2183  50.1683 0001380  92.3760 267.7390 15.08843540 91641,6917.87,95.437,540.689,538.78,0.0
53438.0,STARLINK-4526,PAYLOAD,2024-03-30 03:47:21,15.08846721,0.000133,53.2188,48.9772,102.1273,257.9868,0.00018525,2.662e-05,0.0,0 STARLINK-4526,1 53438U 22097BC  24090.15789236  .00002662  00000-0  18525-3 0  9999,2 53438  53.2188  48.9772 0001330 102.1273 257.9868 15.08846721 91683,6917.86,95.437,540.645,538.805,0.0
53438.0,STARLINK-4526,PAYLOAD,2024-03-30 21:16:37,15.08841819,0.000135,53.2188,45.7108,84.3664,275.7483,5.3969e-05,5.71e-06,0.0,0 STARLINK-4526,1 53438U 22097BC  24090.88653948  .00000571  00000-0  53969-4 0  9998,2 53438  53.2188  45.7108 0001350  84.3664 275.7483 15.08841819 91301,6917.875,95.437,540.674,538.806,0.0
53438.0,STARLINK-4526,PAYLOAD,2024-03-31 06:48:55,15.08846898,0.0001118,53.2176,43.9211,95.1268,264.9852,5.8644e-05,6.46e-06,0.0,0 STARLINK-4526,1 53438U 22097BC  24091.28397331  .00000646  00000-0  58644-4 0  9992,2 53438  53.2176  43.9211 0001118  95.1268 264.9852 15.08846898 91857,6917.859,95.437,540.498,538.951,0.0
53438.0,STARLINK-4526,PAYLOAD,2024-04-01 03:28:56,15.08836515,0.0001318,53.2188,40.0579,101.552,258.562,4.3694e-06,-2.18e-06,0.0,0 STARLINK-4526,1 53438U 22097BC  24092.14510298 -.00000218  00000-0  43694-5 0  9993,2 53438  53.2188  40.0579 0001318 101.5520 258.5620 15.08836515 91497,6917.891,95.438,540.668,538.844,0.0
53438.0,STARLINK-4526,PAYLOAD,2024-04-01 13:01:15,15.08837814,0.0001238,53.2187,38.274,98.9217,261.1915,6.8e-05,7.94e-06,0.0,0 STARLINK-4526,1 53438U 22097BC  24092.54254155  .00000794  00000-0  68000-4 0  9999,2 53438  53.2187  38.2740 0001238  98.9217 261.1915 15.08837814 92040,6917.887,95.438,540.609,538.896,0.0
53438.0,STARLINK-4526,PAYLOAD,2024-04-02 04:55:06,15.08841154,0.0001251,53.2192,35.2993,92.7892,267.3244,9.0958e-05,1.16e-05,0.0,0 STARLINK-4526,1 53438U 22097BC  24093.20494137  .00001160  00000-0  90958-4 0  9994,2 53438  53.2192  35.2993 0001251  92.7892 267.3244 15.08841154 91650,6917.877,95.437,540.607,538.876,0.0
53438.0,STARLINK-4526,PAYLOAD,2024-04-02 12:52:02,15.08840909,0.0001291,53.2192,33.812,90.4937,269.6203,4.1873e-05,3.79e-06,0.0,0 STARLINK-4526,1 53438U 22097BC  24093.53614185  .00000379  00000-0  41873-4 0  9990,2 53438  53.2192  33.8120 0001291  90.4937 269.6203 15.08840909 92192,6917.878,95.437,540.636,538.85,0.0
53438.0,STARLINK-4526,PAYLOAD,2024-04-03 04:45:54,15.08833212,0.0001658,53.2205,30.8412,103.3867,256.731,6.8599e-05,8.04e-06,0.0,0 STARLINK-4526,1 53438U 22097BC  24094.19855147  .00000804  00000-0  68599-4 0  9995,2 53438  53.2205  30.8412 0001658 103.3867 256.7310 15.08833212 91803,6917.901,95.438,540.913,538.619,0.0
53438.0,STARLINK-4526,PAYLOAD,2024-04-03 12:42:50,15.08840064,0.0001437,53.2196,29.3531,91.2364,268.8793,6.5876e-05,7.61e-06,0.0,0 STARLINK-4526,1 53438U 22097BC  24094.52974740  .00000761  00000-0  65876-4 0  9990,2 53438  53.2196  29.3531 0001437  91.2364 268.8793 15.08840064 92341,6917.88,95.438,540.739,538.751,0.0
53438.0,STARLINK-4526,PAYLOAD,2024-04-04 12:33:38,15.08825032,0.0001319,53.2188,24.8906,81.506,278.6081,-0.0001419,-2.545e-05,0.0,0 STARLINK-4526,1 53438U 22097BC  24095.52336483 -.00002545  00000-0 -14190-3 0  9993,2 53438  53.2188  24.8906 0001319  81.5060 278.6081 15.08825032 92002,6917.926,95.439,540.704,538.879,0.0
53438.0,STARLINK-4526,PAYLOAD,2024-04-05 12:24:25,15.08840111,0.0001465,53.219,20.4329,82.9698,277.1461,5.1665e-05,5.34e-06,0.0,0 STARLINK-4526,1 53438U 22097BC  24096.51695900  .00000534  00000-0  51665-4 0  9998,2 53438  53.2190  20.4329 0001465  82.9698 277.1461 15.08840111 92157,6917.88,95.438,540.759,538.732,0.0
53438.0,STARLINK-4526,PAYLOAD,2024-04-06 04:18:15,15.08850608,0.0001377,53.217,17.4596,78.3077,281.8069,0.00023497,3.455e-05,0.0,0 STARLINK-4526,1 53438U 22097BC  24097.17934434  .00003455  00000-0  23497-3 0  9995,2 53438  53.2170  17.4596 0001377  78.3077 281.8069 15.08850608 92258,6917.848,95.437,540.666,538.76,0.0
53438.0,STARLINK-4526,PAYLOAD,2024-04-06 12:15:10,15.0885181,0.0001385,53.2168,15.9726,78.7011,281.4136,0.00023251,3.416e-05,0.0,0 STARLINK-4526,1 53438U 22097BC  24097.51054263  .00003416  00000-0  23251-3 0  9991,2 53438  53.2168  15.9726 0001385  78.7011 281.4136 15.08851810 92790,6917.844,95.437,540.667,538.751,0.0
53438.0,STARLINK-4526,PAYLOAD,2024-04-06 18:36:44,15.08840172,0.0001524,53.2189,14.7818,86.2531,273.8635,0.00023341,3.429e-05,0.0,0 STARLINK-4526,1 53438U 22097BC  24097.77551042  .00003429  00000-0  23341-3 0  9990,2 53438  53.2189  14.7818 0001524  86.2531 273.8635 15.08840172 92347,6917.88,95.438,540.799,538.691,0.0
53438.0,STARLINK-4526,PAYLOAD,2024-04-06 21:47:30,15.08836551,0.0001561,53.218,14.1884,80.1658,279.9511,0.00019775,2.86e-05,0.0,0 STARLINK-4526,1 53438U 22097BC  24097.90799455  .00002860  00000-0  19775-3 0  9991,2 53438  53.2180  14.1884 0001561  80.1658 279.9511 15.08836551 92851,6917.891,95.438,540.836,538.676,0.0
53438.0,STARLINK-4526,PAYLOAD,2024-04-07 00:58:16,15.08846891,0.0001621,53.2197,13.5915,90.3426,269.7752,0.00015251,2.14e-05,0.0,0 STARLINK-4526,1 53438U 22097BC  24098.04046839  .00002140  00000-0  15251-3 0  9994,2 53438  53.2197  13.5915 0001621  90.3426 269.7752 15.08846891 92874,6917.859,95.437,540.846,538.603,0.0
53438.0,STARLINK-4526,PAYLOAD,2024-04-07 21:38:17,15.0884477,0.0001636,53.2193,9.726,94.238,265.8799,-9.4783e-05,-1.796e-05,0.0,0 STARLINK-4526,1 53438U 22097BC  24098.90159363 -.00001796  00000-0 -94783-4 0  9992,2 53438  53.2193   9.7260 0001636  94.2380 265.8799 15.08844770 92511,6917.866,95.437,540.863,538.599,0.0
53438.0,STARLINK-4526,PAYLOAD,2024-04-08 10:21:22,15.08849138,0.0001507,53.2191,7.3496,84.7655,275.3509,-0.00013674,-2.464e-05,0.0,0 STARLINK-4526,1 53438U 22097BC  24099.43151005 -.00002464  00000-0 -13674-3 0  9998,2 53438  53.2191   7.3496 0001507  84.7655 275.3509 15.08849138 93081,6917.852,95.437,540.76,538.675,0.0
53438.0,STARLINK-4526,PAYLOAD,2024-04-09 00:39:50,15.08847823,0.0001438,53.2182,4.6727,86.4559,273.6598,5.0313e-05,5.13e-06,0.0,0 STARLINK-4526,1 53438U 22097BC  24100.02766324  .00000513  00000-0  50313-4 0  9995,2 53438  53.2182   4.6727 0001438  86.4559 273.6598 15.08847823 93171,6917.856,95.437,540.716,538.727,0.0
53438.0,STARLINK-4526,PAYLOAD,2024-04-09 10:12:08,15.08846585,0.0001397,53.2183,2.8891,89.5501,270.5651,-3.3762e-05,-8.25e-06,0.0,0 STARLINK-4526,1 53438U 22097BC  24100.42510416 -.00000825  00000-0 -33762-4 0  9995,2 53438  53.2183   2.8891 0001397  89.5501 270.5651 15.08846585 93236,6917.86,95.437,540.692,538.759,0.0
53438.0,STARLINK-4526,PAYLOAD,2024-04-09 22:55:15,15.08828843,0.0001686,53.2197,0.5098,83.0379,277.0805,-9.4213e-06,-4.38e-06,0.0,0 STARLINK-4526,1 53438U 22097BC  24100.95503857 -.00000438  00000-0 -94213-5 0  9993,2 53438  53.2197   0.5098 0001686  83.0379 277.0805 15.08828843 93317,6917.914,95.438,540.946,538.613,0.0
53438.0,STARLINK-4526,PAYLOAD,2024-04-10 03:41:24,15.08832034,0.0001434,53.2187,359.6159,76.5705,283.5447,7.3418e-06,-1.71e-06,0.0,0 STARLINK-4526,1 53438U 22097BC  24101.15375608 -.00000171  00000-0  73418-5 0  9994,2 53438  53.2187 359.6159 0001434  76.5705 283.5447 15.08832034 92852,6917.905,95.438,540.762,538.778,0.0
53438.0,STARLINK-4526,PAYLOAD,2024-04-10 21:10:38,15.08837633,0.0001521,53.2193,356.3465,87.5198,272.5969,-2.5326e-06,-3.28e-06,0.0,0 STARLINK-4526,1 53438U 22097BC  24101.88239502 -.00000328  00000-0 -25326-5 0  9996,2 53438  53.2193 356.3465 0001521  87.5198 272.5969 15.08837633 93452,6917.888,95.438,540.805,538.7,0.0
53438.0,STARLINK-4526,PAYLOAD,2024-04-11 00:21:24,15.08844276,0.0001442,53.2186,355.751,80.2897,279.8258,-4.4328e-06,-3.59e-06,0.0,0 STARLINK-4526,1 53438U 22097BC  24102.01487137 -.00000359  00000-0 -44328-5 0  9998,2 53438  53.2186 355.7510 0001442  80.2897 279.8258 15.08844276 92985,6917.867,95.437,540.73,538.735,0.0
53438.0,STARLINK-4526,PAYLOAD,2024-04-11 09:53:43,15.08859653,0.0001344,53.2187,353.9676,86.873,273.2416,-0.00022317,-3.84e-05,0.0,0 STARLINK-4526,1 53438U 22097BC  24102.41230545 -.00003840  00000-0 -22317-3 0  9991,2 53438  53.2187 353.9676 0001344  86.8730 273.2416 15.08859653 93045,6917.82,95.436,540.615,538.756,0.0
